#dP2022  5 16 18  0  0.00000000      96 __u+U ITR00 EXT  IAC
## 2210 151200.00000000   900.00000000 59715 0.7500000000000
+  116   C06C07C08C09C10C11C12C13C14C16C19C20C21C22C23C24C25
+        C26C27C28C29C30C32C33C34C35C36C37C38C39C40C41C42C43
+        C44C45C46E02E03E04E05E07E08E09E10E11E12E13E14E15E18
+        E19E21E24E25E26E27E30E31E33E34E36G01G02G03G04G05G06
+        G07G08G09G10G11G12G13G14G15G16G17G18G19G20G21G22G23
+        G24G25G26G27G28G29G30G31G32J02J03R01R02R03R04R05R07
+        R08R09R11R12R13R14R15R17R18R19R20R21R22R24  0  0  0
++         9  9  9  8  9 10  9  9  9  9  8  8  9  8  8  9 10
++         9  9  9  9  9  9  9  9  8  7  8  9  8  9  8  9  8
++         8  9  9  9  7  8  8  9  8  8  8  8  9  9  8 10  9
++         9 10  9  9  9  8 10  9  8  9  8  9  8  8  8  8  8
++        14  8  8  8  9  7  9  9  9  8  8  8  8  8  8  8  8
++         7  8  9  8  8  8  7  8  9 14 11  9  9  9  9  8  9
++         9  9  8 10  8  8  8  8  8  9  9  8 10  8  0  0  0
%c M  cc GPS ccc cccc cccc cccc cccc ccccc ccccc ccccc ccccc
%c cc cc ccc ccc cccc cccc cccc cccc ccccc ccccc ccccc ccccc
%f  0.0000000  0.000000000  0.00000000000  0.000000000000000
%f  0.0000000  0.000000000  0.00000000000  0.000000000000000
%i    0    0    0    0      0      0      0      0         0
%i    0    0    0    0      0      0      0      0         0
/* IAC                                ULTRA-RAPID PREDICTION
/* S/V CLOCKS ARE ALIGNED TO GNSS TIME                      
/* G:C1WC2W R:C1PC2P E:C1XC5X C:C2IC6I J:C1CC2S             
/* PCV:IGS14_2196 OL/AL:FES2004  NONE     YN ORB:CoN CLK:CoN
*  2022 05 17 15  0  0.00000000
PC06  -3356.646905  38502.932650  17133.209742      3.080917
PC07 -10209.960129  25342.406728 -32135.851948   -178.396925
PC08 -19638.117819  33447.992953  16374.937954    317.521523
PC09   1196.273397  41387.950155   9611.419603   -796.131420
PC10  -1061.934885  26849.065403 -32216.800237    131.789081
PC11   9372.384597 -16523.946258  20508.028739    357.897821
PC12  16312.678499   3018.953243  22465.268564   -614.694706
PC13 -12208.253608  33538.707688  22356.509187    -30.190339
PC14  17313.597008  -9928.943622 -19452.368987    477.052321
PC16  -5254.344491  36844.586508  20236.871609    132.171646
PC19  -7329.169515  14404.007723  22783.311951    869.059534
PC20 -23436.550198   4913.695765  14378.511931   -918.766658
PC21  26449.639428   8227.142239   3285.723534   -307.796447
PC22  13662.312837  15979.251045  18341.340341   -969.691852
PC23  -2702.181119 -18731.388505  20513.806130   -930.197517
PC24  22350.005965 -13205.856633 -10275.943135   -965.630093
PC25  12846.662974 -23388.502011   8195.256068   -735.331124
PC26  18138.857066   2305.815035 -21100.252609    736.560958
PC27 -16920.266822 -12629.739990 -18262.621970    724.629339
PC28 -10106.832905 -25787.043906  -3421.722296     67.825145
PC29  -2163.142279  24022.796365 -14050.310670    555.904724
PC30 -14107.773488   7737.185674 -22812.774975    498.622950
PC32 -26536.367283  -8014.926183  -3267.896023   -963.492176
PC33   7294.080785 -14438.845636 -22725.851207   -965.933031
PC34  13707.693807  -8783.116685  22646.297134   -401.496512
PC35  10424.948104  25794.116652   2404.125201    278.242810
PC36 -13782.831277  23001.092214  -7700.755970   -964.414307
PC37 -17371.892191  -3896.949717  21500.675346   -911.212370
PC38 -23697.174198  33701.291356   8658.399922    232.791071
PC39  -7544.868138  33139.056456  25095.034618     34.982243
PC40 -15290.086205  18660.386181 -34628.419986    269.816687
PC41 -13299.343930 -16013.010036 -18532.765219   -966.071736
PC42  24020.980712  -4250.383501 -13481.982578   -971.133355
PC43   2811.731859 -23648.539088  14512.365070   -923.572794
PC44  17430.892401  12261.451128  18017.899228    662.579876
PC45   2908.689769  18470.436794 -20706.258905    759.420971
PC46 -22122.582398  14413.814754   8982.544794   -329.486896
PE02 -16580.367570  17474.857668 -17194.395365    299.756034
PE03  -4862.381050  17719.820182  23208.209454   -559.208145
PE04 -13489.623732 -23530.276632 -11844.901810  -1029.925674
PE05 -20696.415579   1375.219692  21127.283986   -180.773258
PE07  24255.519467  15537.523434  -6776.985343   -669.411238
PE08  13813.333934  23419.790888  11690.766303   -530.672085
PE09 -24320.050508 -15402.528533   6934.440343   -521.442992
PE10  -8739.587765 -20336.448535 -19664.298409   -513.604622
PE11 -13878.174958 -10099.136762 -24127.077720   3642.246364
PE12  -2478.795284 -26802.972076 -12295.692389   4609.214399
PE13  13536.882808  10846.814313  23984.623321    428.736962
PE14 -23652.896215   -395.020957 -22274.367057  -1834.934439
PE15   2395.816545  26881.457099  12170.832203    745.106824
PE18  15090.085823  -4259.462254  17628.173599  -1438.154593
PE19   7120.409769 -16015.684150 -23840.225232  -4819.987563
PE21  28011.296626  -9533.489169    855.177667   -734.717759
PE24 -23156.913422  -5342.549876  17619.544164   -619.971925
PE25 -28072.641108   9361.527039   -586.627506   -574.263345
PE26  16722.990218 -12380.175430  21049.442711  -1155.263408
PE27  23952.826418   4382.076260 -16834.542196   -300.874664
PE30   4699.335431  16025.963651 -24448.856705   -517.811821
PE31  -5828.394650 -15606.424505  24472.974259   -496.771766
PE33  10102.887148 -26981.190623   6760.257904   -456.546409
PE34  -9960.807855  27086.617135  -6585.911679   -517.511508
PE36 -16654.384914  11455.232638 -21630.960706   -374.953050
PG01  13675.927690 -20546.100093   9023.841930    360.987651
PG02 -15258.568464    781.038660 -21093.307126   -653.226697
PG03  19297.478451 -12794.423236 -13015.953989   -247.484213
PG04   9652.815400 -12049.400136 -21593.625404   -166.375913
PG05 -26114.027522   5074.456432  -1640.733412    -82.179157
PG06  -8297.406125 -15673.092312 -19684.691794    306.927405
PG07   4114.447674 -25307.267750   6235.983053    322.135085
PG08  16301.931091  -3479.903103  20715.995400    -68.389806
PG09   -655.161596 -19642.440988 -17914.917449   -336.031527
PG10  10347.958069  12614.734101  21163.703610   -418.031032
PG11 -15695.120553   -915.581300 -21407.529634    -23.853345
PG12 -22707.604516   9658.654901  -9929.686370   -216.875543
PG13 -18807.694372  -6784.650726  17417.931495    313.236747
PG14  -8566.189844 -13788.200003  21034.914422   -108.676818
PG15 -15714.499778   6161.268600  20158.208845    -60.531813
PG16  26158.793189   1377.942014  -5954.474445   -501.649565
PG17 -13127.528232 -22600.772063   4987.742386    613.741640
PG18  -5475.226772  25393.646716   5232.030716    167.661882
PG19 -17119.352833 -20170.526214  -3667.572114    158.525628
PG20 -23556.174053   -662.698314 -12015.326269    514.808598
PG21  16004.676653 -11583.948202  18057.648867    161.115743
PG22  18207.974100  18646.067193  -5176.979589    260.619583
PG23  -2138.061244  15554.034292  21399.647128    -22.465237
PG24 -14311.239049  17930.162124  12724.002701    239.409186
PG25  -9939.030345  15757.454355 -19114.371619    325.862551
PG26  20782.920069   6459.116007 -15518.672187    206.242638
PG27  20680.885956   9077.487885  14073.973379    204.262723
PG28 -16847.309628 -10686.518097  17929.697984    356.314421
PG29   -954.725391  19225.878267 -18324.544721   -514.596987
PG30  -2838.840768 -22345.355157  13958.219387   -528.231774
PG31  10580.528533  13191.097858 -20498.993729   -177.993357
PG32  16123.094697  21080.752045   2707.977670   -129.221016
PJ02 -35013.806624  19587.386087  -8433.684949     -0.161475
PJ03 -19501.528756  28235.114678 -19918.670925     -2.211607
PR01   6031.431306  13268.959705  20936.574322      8.814496
PR02  21416.965742  12521.520472   6112.851242    518.672194
PR03  22599.299840   3933.581705 -11162.517213     56.808445
PR04  11059.129549  -6434.779794 -22034.436486    141.962988
PR05  -6438.722425 -13390.206414 -20711.187343     93.021266
PR07 -22267.541651  -3403.298318  11969.472605     35.210924
PR08 -10920.085640   6714.375143  22110.738848    -65.163647
PR09 -11594.702198  -4866.558420  22221.595887     55.542022
PR11 -18599.106714  16936.736610  -4266.351000     38.784904
PR12  -5044.724365  15538.732849 -19558.742057     18.491232
PR13  10306.876724   5724.684515 -22634.397167    -22.412904
PR14  20796.368484  -8545.927521 -12019.049352     25.673107
PR15  18360.936829 -16941.902669   5159.307607     96.070852
PR17  10577.714091   -274.152975  23210.567857    526.864600
PR18   6190.183923 -17219.856755  17751.969776    117.175097
PR19   -186.756913 -25183.974775   4043.657678   -189.316958
PR20  -8308.477115 -18464.966345 -15483.223227    -70.734252
PR21 -10329.352191   1819.792581 -23257.992962   -301.972551
PR22  -5910.689465  17986.056758 -17169.191417   -183.715637
PR24   9273.693605  17696.010806  15863.444602     94.197507
EOF
